STARLINK-34253          
1 64685U 25139X   26068.43911151  .00049852  00000+0  16815-2 0  9996
2 64685  53.1589 128.3519 0002255  38.4064 321.7097 15.30248133 40249
2025-313BE              
1 67482U 25313BE  26068.69721505  .00077178  00000+0  26504-2 0  9996
2 67482  97.3989 145.3568 0007208 335.3714  24.7181 15.29801687  7972
